ONEWEB-0277             
1 48995U 21060AE  23059.11609292  .00000052  00000+0  10258-3 0  9998
2 48995  87.8988 108.7627 0001307  95.8544 264.2736 13.16595129 82284
ONEWEB-0277             
1 48995U 21060AE  23059.57207363  .00000097  00000+0  22096-3 0  9993
2 48995  87.8987 108.6715 0001314  97.4855 262.6426 13.16595616 81054
ONEWEB-0277             
1 48995U 21060AE  23059.87606143  .00000034  00000+0  55639-4 0  9996
2 48995  87.8986 108.6108 0001318  97.4561 262.6720 13.16595395 81092
ONEWEB-0277             
1 48995U 21060AE  23060.18004862  .00000020  00000+0  17524-4 0  9998
2 48995  87.8987 108.5500 0001326  97.8771 262.2510 13.16595819 82426
ONEWEB-0277             
1 48995U 21060AE  23060.86402084  .00000030  00000+0  43948-4 0  9991
2 48995  87.8986 108.4135 0001335  97.6720 262.4562 13.16595271 81228
ONEWEB-0277             
1 48995U 21060AE  23061.54799275 -.00000040  00000+0 -13875-3 0  9996
2 48995  87.8984 108.2766 0001323  98.9065 261.2216 13.16595377 81317
ONEWEB-0277             
1 48995U 21060AE  23061.54799275 -.00000040  00000+0 -13875-3 0  9996
2 48995  87.8984 108.2766 0001323  98.9065 261.2216 13.16595377 82600
ONEWEB-0277             
1 48995U 21060AE  23062.15596737 -.00000029  00000+0 -11076-3 0  9990
2 48995  87.8983 108.1552 0001324  98.8781 261.2500 13.16595911 81391
ONEWEB-0277             
1 48995U 21060AE  23062.83993981 -.00000055  00000+0 -17817-3 0  9995
2 48995  87.8982 108.0188 0001333  98.7411 261.3871 13.16595536 81488
